ORBCOMM FM115 [+]       
1 41186U 15081H   24047.76619967  .00001753  00000+0  39419-3 0  9997
2 41186  46.9969 189.0767 0000944 293.2630  66.8156 14.60371830436621
ORBCOMM FM108 [+]       
1 41187U 15081J   24047.92039501  .00001342  00000+0  33779-3 0  9993
2 41187  47.0033 240.0211 0002945 238.6231 121.4365 14.56288126435956
ORBCOMM FM117 [+]       
1 41188U 15081K   24047.95490325  .00001071  00000+0  27711-3 0  9990
2 41188  46.9992 238.7815 0003434 250.0968 109.9547 14.56288745435974
